ONEWEB-0045             
1 45151U 20008W   25351.19586317  .00000225  00000+0  59802-3 0  9997
2 45151  87.8874  57.2858 0001866 101.9999 258.1339 13.11412170286552
ONEWEB-0047             
1 45152U 20008X   25351.26554109 -.00000510  00000+0 -14981-2 0  9997
2 45152  87.8806  72.5346 0001806 106.8620 253.2705 13.10373925284373
ONEWEB-0048             
1 45153U 20008Y   25351.26057070 -.00000633  00000+0 -18501-2 0  9991
2 45153  87.8803  72.5626 0001619 102.2388 257.8921 13.10373842283989
ONEWEB-0049             
1 45154U 20008Z   25351.26375450 -.00000614  00000+0 -17947-2 0  9999
2 45154  87.8807  72.5512 0001719 120.5168 239.6129 13.10375525284202
ONEWEB-0051             
1 45155U 20008AA  25351.19415017  .00000280  00000+0  75564-3 0  9993
2 45155  87.8851  57.3069 0001773 103.0732 257.0594 13.11413686287231
ONEWEB-0052             
1 45156U 20008AB  25351.25806795 -.00000634  00000+0 -18534-2 0  9996
2 45156  87.8814  72.5130 0001759 121.5782 238.5518 13.10371808284115
ONEWEB-0053             
1 45157U 20008AC  25351.24065410  .00000083  00000+0  20093-3 0  9997
2 45157  87.8805  72.5622 0002049 102.4650 257.6707 13.10368986284088
ONEWEB-0054             
1 45158U 20008AD  25351.27551106 -.00000101  00000+0 -32623-3 0  9998
2 45158  87.8812  72.5269 0001619 105.8462 254.2844 13.10375771284203
